{
  "type": "FeatureCollection",
  "name": "physical-building-coordinate-comparison",
  "coordinate_system": {
    "geometry": "official longitude/latitude (WGS84)",
    "properties.local_geometry": {
      "type": "local_cartesian",
      "unit": "meter",
      "anchor": "bbox_center",
      "axis": [
        "east",
        "north"
      ]
    }
  },
  "features": [
    {
      "type": "Feature",
      "id": "G07",
      "geometry": {
        "type": "Polygon",
        "coordinates": [
          [
            [
              10.015603404151271,
              53.53316067222029,
              0
            ],
            [
              10.01560340285182,
              53.53316067264301,
              0
            ],
            [
              10.015603401628177,
              53.53316067313957,
              0
            ],
            [
              10.015603400492123,
              53.53316067370522,
              0
            ],
            [
              10.015603399454605,
              53.53316067433449,
              0
            ],
            [
              10.015603398525608,
              53.53316067502129,
              0
            ],
            [
              10.015603397714083,
              53.53316067575905,
              0
            ],
            [
              10.015603397027844,
              53.53316067654065,
              0
            ],
            [
              10.015603396473502,
              53.53316067735856,
              0
            ],
            [
              10.015603396056392,
              53.533160678204894,
              0
            ],
            [
              10.015603395780536,
              53.53316067907153,
              0
            ],
            [
              10.01560339564859,
              53.53316067995007,
              0
            ],
            [
              10.01560339566182,
              53.53316068083212,
              0
            ],
            [
              10.015603395820106,
              53.53316068170912,
              0
            ],
            [
              10.015603396121916,
              53.53316068257268,
              0
            ],
            [
              10.01560339656435,
              53.53316068341444,
              0
            ],
            [
              10.01560339714314,
              53.5331606842263,
              0
            ],
            [
              10.01570855052632,
              53.53329013205469,
              0
            ],
            [
              10.015708550526323,
              53.533290132054695,
              0
            ],
            [
              10.01580055283134,
              53.53340340338197,
              0
            ],
            [
              10.015800553540876,
              53.53340340415616,
              0
            ],
            [
              10.015800554374366,
              53.53340340488519,
              0
            ],
            [
              10.015800555323791,
              53.53340340556203,
              0
            ],
            [
              10.01580055638,
              53.53340340618017,
              0
            ],
            [
              10.015800557532826,
              53.53340340673367,
              0
            ],
            [
              10.015800558771161,
              53.53340340721714,
              0
            ],
            [
              10.015800560083083,
              53.533403407626,
              0
            ],
            [
              10.015800561455954,
              53.53340340795628,
              0
            ],
            [
              10.015800562876551,
              53.5334034082048,
              0
            ],
            [
              10.015800564331197,
              53.533403408369146,
              0
            ],
            [
              10.015800565805877,
              53.53340340844777,
              0
            ],
            [
              10.01580056728639,
              53.53340340843988,
              0
            ],
            [
              10.015800568758477,
              53.53340340834557,
              0
            ],
            [
              10.01580057020796,
              53.53340340816577,
              0
            ],
            [
              10.015800571620877,
              53.53340340790217,
              0
            ],
            [
              10.015800572983624,
              53.53340340755733,
              0
            ],
            [
              10.016235128310516,
              53.53327811145014,
              0
            ],
            [
              10.016235129609905,
              53.533278111027386,
              0
            ],
            [
              10.01623513083349,
              53.533278110530794,
              0
            ],
            [
              10.016235131969482,
              53.53327810996517,
              0
            ],
            [
              10.016235133006946,
              53.5332781093359,
              0
            ],
            [
              10.016235133935893,
              53.533278108649085,
              0
            ],
            [
              10.016235134747369,
              53.53327810791134,
              0
            ],
            [
              10.016235135433565,
              53.53327810712977,
              0
            ],
            [
              10.01623513598787,
              53.533278106311876,
              0
            ],
            [
              10.01623513640495,
              53.533278105465556,
              0
            ],
            [
              10.016235136680784,
              53.533278104598956,
              0
            ],
            [
              10.016235136812718,
              53.533278103720434,
              0
            ],
            [
              10.01623513679948,
              53.53327810283843,
              0
            ],
            [
              10.016235136641198,
              53.53327810196145,
              0
            ],
            [
              10.016235136339397,
              53.533278101097906,
              0
            ],
            [
              10.01623513589698,
              53.533278100256176,
              0
            ],
            [
              10.016235135318214,
              53.533278099444324,
              0
            ],
            [
              10.016143132348907,
              53.53316483744042,
              0
            ],
            [
              10.016143132348848,
              53.533164837440346,
              0
            ],
            [
              10.016143132348791,
              53.533164837440275,
              0
            ],
            [
              10.01603797796026,
              53.533035389995725,
              0
            ],
            [
              10.016037977250702,
              53.53303538922159,
              0
            ],
            [
              10.016037976417206,
              53.53303538849262,
              0
            ],
            [
              10.016037975467793,
              53.53303538781582,
              0
            ],
            [
              10.016037974411608,
              53.53303538719773,
              0
            ],
            [
              10.01603797325882,
              53.5330353866443,
              0
            ],
            [
              10.016037972020534,
              53.53303538616085,
              0
            ],
            [
              10.016037970708673,
              53.533035385752015,
              0
            ],
            [
              10.016037969335871,
              53.533035385421776,
              0
            ],
            [
              10.016037967915352,
              53.533035385173285,
              0
            ],
            [
              10.01603796646079,
              53.53303538500894,
              0
            ],
            [
              10.016037964986191,
              53.533035384930336,
              0
            ],
            [
              10.016037963505765,
              53.53303538493823,
              0
            ],
            [
              10.016037962033758,
              53.53303538503251,
              0
            ],
            [
              10.016037960584354,
              53.5330353852123,
              0
            ],
            [
              10.01603795917151,
              53.53303538547588,
              0
            ],
            [
              10.016037957808827,
              53.53303538582066,
              0
            ],
            [
              10.015603404151271,
              53.53316067222029,
              0
            ]
          ]
        ]
      },
      "properties": {
        "building_id": "G07",
        "marker_ids": [
          12
        ],
        "local_bbox": [
          -20.944513765771404,
          -20.479817886897305,
          20.944455824489616,
          20.47983163339626
        ],
        "local_geometry": {
          "type": "Polygon",
          "local_coordinates": [
            [
              [
                -20.94394998068027,
                -6.535768631705119
              ],
              [
                -20.94403614374107,
                -6.535721584095393
              ],
              [
                -20.944117279192387,
                -6.535666318753706
              ],
              [
                -20.944192608400595,
                -6.535603362956878
              ],
              [
                -20.944261402376053,
                -6.535533327090919
              ],
              [
                -20.944323000849124,
                -6.535456888652135
              ],
              [
                -20.944376810814465,
                -6.535374779100153
              ],
              [
                -20.944422313095455,
                -6.535287789557741
              ],
              [
                -20.9444590695685,
                -6.53519675951018
              ],
              [
                -20.94448672708624,
                -6.53510256486656
              ],
              [
                -20.944505017220365,
                -6.535006111618221
              ],
              [
                -20.944513765771404,
                -6.534908333299402
              ],
              [
                -20.94451288853285,
                -6.53481016416756
              ],
              [
                -20.944502392334126,
                -6.534712558433279
              ],
              [
                -20.944482379277844,
                -6.534616446974655
              ],
              [
                -20.944453042701593,
                -6.53452276334635
              ],
              [
                -20.944414664716064,
                -6.534432405347575
              ],
              [
                -13.97193901787486,
                7.872603975395672
              ],
              [
                -13.971939018513755,
                7.872603976422237
              ],
              [
                -7.871515579617732,
                20.4792678303578
              ],
              [
                -7.871468532795275,
                20.479353996423736
              ],
              [
                -7.871413266236284,
                20.479435133627927
              ],
              [
                -7.871350312666233,
                20.47951046279628
              ],
              [
                -7.871280278907077,
                20.479579260019367
              ],
              [
                -7.871203838582366,
                20.479640862849248
              ],
              [
                -7.871121728057717,
                20.47969467074578
              ],
              [
                -7.871034738859166,
                20.4797401748815
              ],
              [
                -7.8709437078309,
                20.479776933899
              ],
              [
                -7.87084951244323,
                20.479804593505058
              ],
              [
                -7.870753058942271,
                20.479822883077844
              ],
              [
                -7.870655277665994,
                20.47983163339626
              ],
              [
                -7.870557109628954,
                20.47983075637313
              ],
              [
                -7.87045950022047,
                20.47982026001299
              ],
              [
                -7.87036338948872,
                20.479800247955854
              ],
              [
                -7.870269703356587,
                20.479770911119232
              ],
              [
                -7.870179344199329,
                20.47973253243799
              ],
              [
                20.943892064809376,
                6.534781120104969
              ],
              [
                20.943978222763,
                6.534734069960691
              ],
              [
                20.944059356197613,
                6.534678801968292
              ],
              [
                20.94413468079721,
                6.534615850439659
              ],
              [
                20.944203471784377,
                6.534545815935196
              ],
              [
                20.944265067361393,
                6.534469375624468
              ],
              [
                20.94431887545728,
                6.534387267597191
              ],
              [
                20.94436437540068,
                6.5343002813633495
              ],
              [
                20.944401129884245,
                6.5342092533334215
              ],
              [
                20.944428785820232,
                6.53411506172651
              ],
              [
                20.9444470761895,
                6.534018612314928
              ],
              [
                20.944455824489616,
                6.533920836049623
              ],
              [
                20.944454947196746,
                6.533822672257346
              ],
              [
                20.944444451720774,
                6.533725067478563
              ],
              [
                20.94442444148774,
                6.533628957972786
              ],
              [
                20.94439510563465,
                6.533535276621983
              ],
              [
                20.944356730647172,
                6.53344492037901
              ],
              [
                14.843948130921044,
                -6.072218223602376
              ],
              [
                14.843948126930107,
                -6.072218232423323
              ],
              [
                14.843948123349525,
                -6.072218240245398
              ],
              [
                7.871473113426656,
                -20.479254128448286
              ],
              [
                7.871426064343953,
                -20.479340284646632
              ],
              [
                7.871370797584906,
                -20.479421417623644
              ],
              [
                7.871307844383176,
                -20.479496742336725
              ],
              [
                7.8712378117457265,
                -20.479565534805932
              ],
              [
                7.871161373327326,
                -20.4796271284093
              ],
              [
                7.871079266029558,
                -20.479680935657285
              ],
              [
                7.870992279855789,
                -20.479726437331983
              ],
              [
                7.870901252861509,
                -20.479763191979877
              ],
              [
                7.870807061873186,
                -20.479790848210193
              ],
              [
                7.8707106134929035,
                -20.479809138687326
              ],
              [
                7.8706128362884025,
                -20.479817886897305
              ],
              [
                7.870514673356694,
                -20.479817009275717
              ],
              [
                7.870417068232018,
                -20.479806516425455
              ],
              [
                7.870320961856488,
                -20.479786505587832
              ],
              [
                7.870227279811243,
                -20.47975717197587
              ],
              [
                7.870136924064525,
                -20.47971879982058
              ],
              [
                -20.94394998068027,
                -6.535768631705119
              ]
            ]
          ]
        },
        "catalog_source_properties": {
          "id": null,
          "AOG": null,
          "GFK": null,
          "WGF": null,
          "area_planning_type": "unknown land use type",
          "building_height": 60.3,
          "building_id": "G07",
          "elevation_at_bottom": 5,
          "floor_area": 960.11,
          "land_use_detailed_type": "to be defined",
          "land_use_suggested": "- to be defined -",
          "number_of_stories": 16,
          "city_scope_id": "B-07"
        },
        "official_properties": {
          "id": null,
          "AOG": null,
          "GFK": null,
          "WGF": null,
          "area_planning_type": "unknown land use type",
          "building_height": 60.3,
          "building_id": "G07",
          "elevation_at_bottom": 5,
          "floor_area": 960.11,
          "land_use_detailed_type": "to be defined",
          "land_use_suggested": "- to be defined -",
          "number_of_stories": 16,
          "city_scope_id": "B-07"
        }
      }
    },
    {
      "type": "Feature",
      "id": "G11",
      "geometry": {
        "type": "Polygon",
        "coordinates": [
          [
            [
              10.010035184254926,
              53.534059501582504,
              7.5
            ],
            [
              10.010327660537751,
              53.53401529462951,
              7.5
            ],
            [
              10.010201645252659,
              53.533719370770115,
              7.5
            ],
            [
              10.00992756496894,
              53.533806758162534,
              7.5
            ],
            [
              10.010035184254926,
              53.534059501582504,
              7.5
            ]
          ]
        ]
      },
      "properties": {
        "building_id": "G11",
        "marker_ids": [
          18
        ],
        "local_bbox": [
          -13.264419153931827,
          -18.927646876731398,
          13.26435398480851,
          18.927653945223796
        ],
        "local_geometry": {
          "type": "Polygon",
          "local_coordinates": [
            [
              [
                -6.128550976451704,
                18.927653945223796
              ],
              [
                13.26435398480851,
                14.007598367153967
              ],
              [
                4.908827791460853,
                -18.927646876731398
              ],
              [
                -13.264419153931827,
                -9.20173796424
              ],
              [
                -6.128550976451704,
                18.927653945223796
              ]
            ]
          ]
        },
        "catalog_source_properties": {
          "id": null,
          "AOG": null,
          "GFK": null,
          "WGF": null,
          "area_planning_type": "unknown land use type",
          "building_height": 53.9,
          "building_id": "G11",
          "elevation_at_bottom": 7.5,
          "floor_area": 629.78,
          "land_use_detailed_type": "to be defined",
          "land_use_suggested": "- to be defined -",
          "number_of_stories": 13,
          "city_scope_id": "B-11"
        },
        "official_properties": {
          "id": null,
          "AOG": null,
          "GFK": null,
          "WGF": null,
          "area_planning_type": "unknown land use type",
          "building_height": 53.9,
          "building_id": "G11",
          "elevation_at_bottom": 7.5,
          "floor_area": 629.78,
          "land_use_detailed_type": "to be defined",
          "land_use_suggested": "- to be defined -",
          "number_of_stories": 13,
          "city_scope_id": "B-11"
        }
      }
    },
    {
      "type": "Feature",
      "id": "G12",
      "geometry": {
        "type": "Polygon",
        "coordinates": [
          [
            [
              10.010449058044909,
              53.53386179691165,
              7.5
            ],
            [
              10.010506220326437,
              53.53398760073027,
              7.5
            ],
            [
              10.011056083791818,
              53.53389892317424,
              7.5
            ],
            [
              10.01099893509186,
              53.533773119496075,
              7.5
            ],
            [
              10.010449058044909,
              53.53386179691165,
              7.5
            ]
          ]
        ]
      },
      "properties": {
        "building_id": "G12",
        "marker_ids": [
          19
        ],
        "local_bbox": [
          -20.1247755069234,
          -11.935455038581097,
          20.12475790378186,
          11.935511737937388
        ],
        "local_geometry": {
          "type": "Polygon",
          "local_coordinates": [
            [
              [
                -20.1247755069234,
                -2.0659726879743423
              ],
              [
                -16.334515263793715,
                11.935511737937388
              ],
              [
                20.12475790378186,
                2.0660427967354273
              ],
              [
                16.33549834911378,
                -11.935455038581097
              ],
              [
                -20.1247755069234,
                -2.0659726879743423
              ]
            ]
          ]
        },
        "catalog_source_properties": {
          "id": null,
          "AOG": null,
          "GFK": null,
          "WGF": null,
          "area_planning_type": "unknown land use type",
          "building_height": 34.7,
          "building_id": "G12",
          "elevation_at_bottom": 7.5,
          "floor_area": 547.52,
          "land_use_detailed_type": "to be defined",
          "land_use_suggested": "- to be defined -",
          "number_of_stories": 7,
          "city_scope_id": "B-12"
        },
        "official_properties": {
          "id": null,
          "AOG": null,
          "GFK": null,
          "WGF": null,
          "area_planning_type": "unknown land use type",
          "building_height": 34.7,
          "building_id": "G12",
          "elevation_at_bottom": 7.5,
          "floor_area": 547.52,
          "land_use_detailed_type": "to be defined",
          "land_use_suggested": "- to be defined -",
          "number_of_stories": 7,
          "city_scope_id": "B-12"
        }
      }
    },
    {
      "type": "Feature",
      "id": "G17",
      "geometry": {
        "type": "Polygon",
        "coordinates": [
          [
            [
              10.01229557288088,
              53.53347261263812,
              7.5
            ],
            [
              10.012380533312191,
              53.53362627996101,
              7.5
            ],
            [
              10.012969458022916,
              53.53351069126481,
              7.5
            ],
            [
              10.012884480831028,
              53.53335703348125,
              7.5
            ],
            [
              10.01229557288088,
              53.53347261263812,
              7.5
            ]
          ]
        ]
      },
      "properties": {
        "building_id": "G17",
        "marker_ids": [
          24
        ],
        "local_bbox": [
          -22.341575492358384,
          -14.983037168012604,
          22.34155544928376,
          14.983096598093383
        ],
        "local_geometry": {
          "type": "Polygon",
          "local_coordinates": [
            [
              [
                -22.341575492358384,
                -2.119482914076602
              ],
              [
                -16.70806273795005,
                14.983096598093383
              ],
              [
                22.34155544928376,
                2.118526889898375
              ],
              [
                16.70705737990766,
                -14.983037168012604
              ],
              [
                -22.341575492358384,
                -2.119482914076602
              ]
            ]
          ]
        },
        "catalog_source_properties": {
          "id": null,
          "AOG": null,
          "GFK": null,
          "WGF": null,
          "area_planning_type": "unknown land use type",
          "building_height": 50.7,
          "building_id": "G17",
          "elevation_at_bottom": 7.5,
          "floor_area": 739.79,
          "land_use_detailed_type": "to be defined",
          "land_use_suggested": "- to be defined -",
          "number_of_stories": 12,
          "city_scope_id": "B-17"
        },
        "official_properties": {
          "id": null,
          "AOG": null,
          "GFK": null,
          "WGF": null,
          "area_planning_type": "unknown land use type",
          "building_height": 50.7,
          "building_id": "G17",
          "elevation_at_bottom": 7.5,
          "floor_area": 739.79,
          "land_use_detailed_type": "to be defined",
          "land_use_suggested": "- to be defined -",
          "number_of_stories": 12,
          "city_scope_id": "B-17"
        }
      }
    },
    {
      "type": "Feature",
      "id": "G20",
      "geometry": {
        "type": "Polygon",
        "coordinates": [
          [
            [
              10.013021982234383,
              53.53292164442694,
              7.5
            ],
            [
              10.013225462686114,
              53.53287379762975,
              7.5
            ],
            [
              10.01303178597693,
              53.53258141634312,
              7.5
            ],
            [
              10.012841923104405,
              53.53264979527967,
              7.5
            ],
            [
              10.013021982234383,
              53.53292164442694,
              7.5
            ]
          ]
        ]
      },
      "properties": {
        "building_id": "G20",
        "marker_ids": [
          27
        ],
        "local_bbox": [
          -12.715883009216244,
          -18.93305877532144,
          12.71581590384274,
          18.933059384626073
        ],
        "local_geometry": {
          "type": "Polygon",
          "local_coordinates": [
            [
              [
                -0.7765062437860081,
                18.933059384626073
              ],
              [
                12.71581590384274,
                13.60790604314716
              ],
              [
                -0.12644426081844176,
                -18.93305877532144
              ],
              [
                -12.715883009216244,
                -11.32272096796044
              ],
              [
                -0.7765062437860081,
                18.933059384626073
              ]
            ]
          ]
        },
        "catalog_source_properties": {
          "id": null,
          "AOG": null,
          "GFK": null,
          "WGF": null,
          "area_planning_type": "unknown land use type",
          "building_height": 34.7,
          "building_id": "G20",
          "elevation_at_bottom": 7.5,
          "floor_area": 489.27,
          "land_use_detailed_type": "to be defined",
          "land_use_suggested": "- to be defined -",
          "number_of_stories": 7,
          "city_scope_id": "B-20"
        },
        "official_properties": {
          "id": null,
          "AOG": null,
          "GFK": null,
          "WGF": null,
          "area_planning_type": "unknown land use type",
          "building_height": 34.7,
          "building_id": "G20",
          "elevation_at_bottom": 7.5,
          "floor_area": 489.27,
          "land_use_detailed_type": "to be defined",
          "land_use_suggested": "- to be defined -",
          "number_of_stories": 7,
          "city_scope_id": "B-20"
        }
      }
    },
    {
      "type": "Feature",
      "id": "G39",
      "geometry": {
        "type": "Polygon",
        "coordinates": [
          [
            [
              10.016036919105694,
              53.53227071448637,
              7.5
            ],
            [
              10.015941623279835,
              53.532153399277,
              7.5
            ],
            [
              10.015398442172417,
              53.53231002678689,
              7.5
            ],
            [
              10.01549373664486,
              53.532427333444254,
              7.5
            ],
            [
              10.016036919105694,
              53.53227071448637,
              7.5
            ]
          ]
        ]
      },
      "properties": {
        "building_id": "G39",
        "marker_ids": [
          47
        ],
        "local_bbox": [
          -21.168253190477273,
          -15.243901394836225,
          21.168272795832976,
          15.243948421486643
        ],
        "local_geometry": {
          "type": "Polygon",
          "local_coordinates": [
            [
              [
                21.168272795832976,
                -2.1871327860514778
              ],
              [
                14.849375960243307,
                -15.243901394836225
              ],
              [
                -21.168253190477273,
                2.1881794507485046
              ],
              [
                -14.84936987329773,
                15.243948421486643
              ],
              [
                21.168272795832976,
                -2.1871327860514778
              ]
            ]
          ]
        },
        "catalog_source_properties": {
          "id": null,
          "AOG": null,
          "GFK": null,
          "WGF": null,
          "area_planning_type": "unknown land use type",
          "building_height": 34.7,
          "building_id": "G39",
          "elevation_at_bottom": 7.5,
          "floor_area": 580,
          "land_use_detailed_type": "to be defined",
          "land_use_suggested": "- to be defined -",
          "number_of_stories": 7,
          "city_scope_id": "B-39"
        },
        "official_properties": {
          "id": null,
          "AOG": null,
          "GFK": null,
          "WGF": null,
          "area_planning_type": "unknown land use type",
          "building_height": 34.7,
          "building_id": "G39",
          "elevation_at_bottom": 7.5,
          "floor_area": 580,
          "land_use_detailed_type": "to be defined",
          "land_use_suggested": "- to be defined -",
          "number_of_stories": 7,
          "city_scope_id": "B-39"
        }
      }
    }
  ]
}
